LUR-1                   
1 60506U 24149AQ  26068.79566301  .00009121  00000+0  32985-3 0  9998
2 60506  97.3790 148.4255 0002777 309.1571  50.9421 15.28658648 86785
STARLINK-34844          
1 66486U 25263B   26068.10939454  .00045992  00000+0  16706-2 0  9995
2 66486  43.0041 353.6766 0001789 255.4562 104.6092 15.27577164 18763
